{"type": "FeatureCollection", "features": [ {"type": "Feature", "properties": {"norad_id": 37834, "name": "INTELSAT 18 (IS-18)", "group": "intelsat", "lat": 0.036977392088183014, "lon": 72.92608245851513, "alt_km": 35794.61383850026, "timestamp": "2025-12-10T11:33:53.059209+00:00", "meta": {"OBJECT_NAME": "INTELSAT 18 (IS-18)", "OBJECT_ID": "2011-056A", "EPOCH": "2025-12-09T19:33:58.959072", "MEAN_MOTION": 1.00271499, "ECCENTRICITY": 0.0002062, "INCLINATION": 0.0181, "RA_OF_ASC_NODE": 348.2925, "ARG_OF_PERICENTER": 277.6414, "MEAN_ANOMALY": 286.358, "EPHEMERIS_TYPE": 0, "CLASSIFICATION_TYPE": "U", "NORAD_CAT_ID": 37834, "ELEMENT_SET_NO": 999, "REV_AT_EPOCH": 5191, "BSTAR": 0, "MEAN_MOTION_DOT": 5.5e-07, "MEAN_MOTION_DDOT": 0}, "tle": {"line1": "1 37834U 11056A   25343.81526573  .00000055  00000+0  00000+0 0  9990", "line2": "2 37834   0.0181 348.2925 0002062 277.6414 286.3580  1.00271499 51912"}}, "geometry": {"type": "Point", "coordinates": [72.92608245851513, 0.036977392088183014]}}, {"type": "Feature", "properties": {"norad_id": 38098, "name": "INTELSAT 22 (IS-22)", "group": "intelsat", "lat": 0.001944624987069406, "lon": -34.92888348350613, "alt_km": 35781.90906117148, "timestamp": "2025-12-10T11:33:53.059221+00:00", "meta": {"OBJECT_NAME": "INTELSAT 22 (IS-22)", "OBJECT_ID": "2012-011A", "EPOCH": "2025-12-10T00:45:38.639808", "MEAN_MOTION": 1.00274467, "ECCENTRICITY": 0.0001575, "INCLINATION": 0.0142, "RA_OF_ASC_NODE": 308.9114, "ARG_OF_PERICENTER": 317.022, "MEAN_ANOMALY": 256.6172, "EPHEMERIS_TYPE": 0, "CLASSIFICATION_TYPE": "U", "NORAD_CAT_ID": 38098, "ELEMENT_SET_NO": 999, "REV_AT_EPOCH": 529, "BSTAR": 0, "MEAN_MOTION_DOT": -5.6e-07, "MEAN_MOTION_DDOT": 0}, "tle": {"line1": "1 38098U 12011A   25344.03169722 -.00000056  00000+0  00000+0 0  9991", "line2": "2 38098   0.0142 308.9114 0001575 317.0220 256.6172  1.00274467  5292"}}, "geometry": {"type": "Point", "coordinates": [-34.92888348350613, 0.001944624987069406]}}, {"type": "Feature", "properties": {"norad_id": 38356, "name": "INTELSAT 19 (IS-19)", "group": "intelsat", "lat": 0.026599245003229573, "lon": 58.94935285326837, "alt_km": 35799.253930891886, "timestamp": "2025-12-10T11:33:53.059232+00:00", "meta": {"OBJECT_NAME": "INTELSAT 19 (IS-19)", "OBJECT_ID": "2012-030A", "EPOCH": "2025-12-09T21:12:19.534752", "MEAN_MOTION": 1.00271817, "ECCENTRICITY": 0.0003518, "INCLINATION": 0.0084, "RA_OF_ASC_NODE": 344.1124, "ARG_OF_PERICENTER": 282.521, "MEAN_ANOMALY": 296.3208, "EPHEMERIS_TYPE": 0, "CLASSIFICATION_TYPE": "U", "NORAD_CAT_ID": 38356, "ELEMENT_SET_NO": 999, "REV_AT_EPOCH": 4855, "BSTAR": 0, "MEAN_MOTION_DOT": -5.3e-07, "MEAN_MOTION_DDOT": 0}, "tle": {"line1": "1 38356U 12030A   25343.88355943 -.00000053  00000+0  00000+0 0  9990", "line2": "2 38356   0.0084 344.1124 0003518 282.5210 296.3208  1.00271817 48554"}}, "geometry": {"type": "Point", "coordinates": [58.94935285326837, 0.026599245003229573]}}, {"type": "Feature", "properties": {"norad_id": 38740, "name": "INTELSAT 20 (IS-20)", "group": "intelsat", "lat": -0.0016386505348168195, "lon": -38.54407847322229, "alt_km": 35794.49712702674, "timestamp": "2025-12-10T11:33:53.059244+00:00", "meta": {"OBJECT_NAME": "INTELSAT 20 (IS-20)", "OBJECT_ID": "2012-043A", "EPOCH": "2025-12-10T00:45:38.639808", "MEAN_MOTION": 1.00270927, "ECCENTRICITY": 0.0002734, "INCLINATION": 0.0094, "RA_OF_ASC_NODE": 92.4172, "ARG_OF_PERICENTER": 93.433, "MEAN_ANOMALY": 333.0845, "EPHEMERIS_TYPE": 0, "CLASSIFICATION_TYPE": "U", "NORAD_CAT_ID": 38740, "ELEMENT_SET_NO": 999, "REV_AT_EPOCH": 4885, "BSTAR": 0, "MEAN_MOTION_DOT": -2.1e-07, "MEAN_MOTION_DDOT": 0}, "tle": {"line1": "1 38740U 12043A   25344.03169722 -.00000021  00000+0  00000+0 0  9992", "line2": "2 38740   0.0094  92.4172 0002734  93.4330 333.0845  1.00270927 48859"}}, "geometry": {"type": "Point", "coordinates": [-38.54407847322229, -0.0016386505348168195]}}, {"type": "Feature", "properties": {"norad_id": 38749, "name": "INTELSAT 21 (IS-21)", "group": "intelsat", "lat": 0.0013464050905365895, "lon": -165.09923225185557, "alt_km": 35782.34632387058, "timestamp": "2025-12-10T11:33:53.059255+00:00", "meta": {"OBJECT_NAME": "INTELSAT 21 (IS-21)", "OBJECT_ID": "2012-045A", "EPOCH": "2025-12-10T03:59:38.770080", "MEAN_MOTION": 1.00270223, "ECCENTRICITY": 0.0002123, "INCLINATION": 0.0158, "RA_OF_ASC_NODE": 47.3107, "ARG_OF_PERICENTER": 209.6362, "MEAN_ANOMALY": 184.11, "EPHEMERIS_TYPE": 0, "CLASSIFICATION_TYPE": "U", "NORAD_CAT_ID": 38749, "ELEMENT_SET_NO": 999, "REV_AT_EPOCH": 4862, "BSTAR": 0, "MEAN_MOTION_DOT": -2.82e-06, "MEAN_MOTION_DDOT": 0}, "tle": {"line1": "1 38749U 12045A   25344.16642095 -.00000282  00000+0  00000+0 0  9995", "line2": "2 38749   0.0158  47.3107 0002123 209.6362 184.1100  1.00270223 48627"}}, "geometry": {"type": "Point", "coordinates": [-165.09923225185557, 0.0013464050905365895]}}, {"type": "Feature", "properties": {"norad_id": 38867, "name": "INTELSAT 23 (IS-23)", "group": "intelsat", "lat": 0.02544269573932342, "lon": -160.1408113532461, "alt_km": 35780.938385872854, "timestamp": "2025-12-10T11:33:53.059267+00:00", "meta": {"OBJECT_NAME": "INTELSAT 23 (IS-23)", "OBJECT_ID": "2012-057A", "EPOCH": "2025-12-09T20:10:10.490880", "MEAN_MOTION": 1.00260311, "ECCENTRICITY": 0.0002006, "INCLINATION": 0.0432, "RA_OF_ASC_NODE": 94.7791, "ARG_OF_PERICENTER": 102.2636, "MEAN_ANOMALY": 131.2856, "EPHEMERIS_TYPE": 0, "CLASSIFICATION_TYPE": "U", "NORAD_CAT_ID": 38867, "ELEMENT_SET_NO": 999, "REV_AT_EPOCH": 4805, "BSTAR": 0, "MEAN_MOTION_DOT": -2.82e-06, "MEAN_MOTION_DDOT": 0}, "tle": {"line1": "1 38867U 12057A   25343.84039920 -.00000282  00000+0  00000+0 0  9990", "line2": "2 38867   0.0432  94.7791 0002006 102.2636 131.2856  1.00260311 48055"}}, "geometry": {"type": "Point", "coordinates": [-160.1408113532461, 0.02544269573932342]}}, {"type": "Feature", "properties": {"norad_id": 39360, "name": "FM-6", "group": "intelsat", "lat": 0.0029783940396897984, "lon": 136.75019395959683, "alt_km": 35777.065085515285, "timestamp": "2025-12-10T11:33:53.059279+00:00", "meta": {"OBJECT_NAME": "FM-6", "OBJECT_ID": "2013-058A", "EPOCH": "2025-12-10T04:39:38.509344", "MEAN_MOTION": 1.00269351, "ECCENTRICITY": 0.0002876, "INCLINATION": 0.009, "RA_OF_ASC_NODE": 85.4375, "ARG_OF_PERICENTER": 87.9229, "MEAN_ANOMALY": 219.5709, "EPHEMERIS_TYPE": 0, "CLASSIFICATION_TYPE": "U", "NORAD_CAT_ID": 39360, "ELEMENT_SET_NO": 999, "REV_AT_EPOCH": 4417, "BSTAR": 0, "MEAN_MOTION_DOT": -1.3e-07, "MEAN_MOTION_DDOT": 0}, "tle": {"line1": "1 39360U 13058A   25344.19419571 -.00000013  00000+0  00000+0 0  9996", "line2": "2 39360   0.0090  85.4375 0002876  87.9229 219.5709  1.00269351 44170"}}, "geometry": {"type": "Point", "coordinates": [136.75019395959683, 0.0029783940396897984]}}, {"type": "Feature", "properties": {"norad_id": 40271, "name": "INTELSAT 30 (IS-30)", "group": "intelsat", "lat": 0.014411954241047428, "lon": 157.871930435469, "alt_km": 35785.48566793457, "timestamp": "2025-12-10T11:33:53.059290+00:00", "meta": {"OBJECT_NAME": "INTELSAT 30 (IS-30)", "OBJECT_ID": "2014-062A", "EPOCH": "2025-12-10T01:11:38.647968", "MEAN_MOTION": 1.00269267, "ECCENTRICITY": 0.0001311, "INCLINATION": 0.0157, "RA_OF_ASC_NODE": 21.0097, "ARG_OF_PERICENTER": 60.6078, "MEAN_ANOMALY": 280.2609, "EPHEMERIS_TYPE": 0, "CLASSIFICATION_TYPE": "U", "NORAD_CAT_ID": 40271, "ELEMENT_SET_NO": 999, "REV_AT_EPOCH": 488, "BSTAR": 0, "MEAN_MOTION_DOT": -1.47e-06, "MEAN_MOTION_DDOT": 0}, "tle": {"line1": "1 40271U 14062A   25344.04975287 -.00000147  00000+0  00000+0 0  9998", "line2": "2 40271   0.0157  21.0097 0001311  60.6078 280.2609  1.00269267  4881"}}, "geometry": {"type": "Point", "coordinates": [157.871930435469, 0.014411954241047428]}}, {"type": "Feature", "properties": {"norad_id": 40333, "name": "DIRECTV 14", "group": "intelsat", "lat": 6.74052972212537e-05, "lon": 153.70427493521805, "alt_km": 35784.91343520613, "timestamp": "2025-12-10T11:33:53.059302+00:00", "meta": {"OBJECT_NAME": "DIRECTV 14", "OBJECT_ID": "2014-078B", "EPOCH": "2025-12-10T04:23:38.620032", "MEAN_MOTION": 1.00270853, "ECCENTRICITY": 4.43e-05, "INCLINATION": 0.0174, "RA_OF_ASC_NODE": 330.1413, "ARG_OF_PERICENTER": 222.7912, "MEAN_ANOMALY": 212.9246, "EPHEMERIS_TYPE": 0, "CLASSIFICATION_TYPE": "U", "NORAD_CAT_ID": 40333, "ELEMENT_SET_NO": 999, "REV_AT_EPOCH": 4014, "BSTAR": 0, "MEAN_MOTION_DOT": -1.22e-06, "MEAN_MOTION_DDOT": 0}, "tle": {"line1": "1 40333U 14078B   25344.18308588 -.00000122  00000+0  00000+0 0  9996", "line2": "2 40333   0.0174 330.1413 0000443 222.7912 212.9246  1.00270853 40149"}}, "geometry": {"type": "Point", "coordinates": [153.70427493521805, 6.74052972212537e-05]}}, {"type": "Feature", "properties": {"norad_id": 40663, "name": "DIRECTV 15", "group": "intelsat", "lat": 0.03719672240833462, "lon": 150.04745419467633, "alt_km": 35787.948502589854, "timestamp": "2025-12-10T11:33:53.059313+00:00", "meta": {"OBJECT_NAME": "DIRECTV 15", "OBJECT_ID": "2015-026A", "EPOCH": "2025-12-10T04:31:38.802720", "MEAN_MOTION": 1.00269219, "ECCENTRICITY": 3.06e-05, "INCLINATION": 0.0409, "RA_OF_ASC_NODE": 83.3518, "ARG_OF_PERICENTER": 219.604, "MEAN_ANOMALY": 101.2507, "EPHEMERIS_TYPE": 0, "CLASSIFICATION_TYPE": "U", "NORAD_CAT_ID": 40663, "ELEMENT_SET_NO": 999, "REV_AT_EPOCH": 3856, "BSTAR": 0, "MEAN_MOTION_DOT": -9.9e-07, "MEAN_MOTION_DDOT": 0}, "tle": {"line1": "1 40663U 15026A   25344.18864355 -.00000099  00000+0  00000+0 0  9998", "line2": "2 40663   0.0409  83.3518 0000306 219.6040 101.2507  1.00269219 38561"}}, "geometry": {"type": "Point", "coordinates": [150.04745419467633, 0.03719672240833462]}}]}